NORAD_CAT_ID,OBJECT_NAME,OBJECT_TYPE,EPOCH,MEAN_MOTION,ECCENTRICITY,INCLINATION,RA_OF_ASC_NODE,ARG_OF_PERICENTER,MEAN_ANOMALY,BSTAR,MEAN_MOTION_DOT,MEAN_MOTION_DDOT,TLE_LINE0,TLE_LINE1,TLE_LINE2,SEMIMAJOR_AXIS,PERIOD,APOGEE,PERIGEE,DECAYED
53294.0,STARLINK-4146,PAYLOAD,2023-11-11 10:33:47,15.08839477,0.0001382,53.217,26.3897,84.5216,275.5933,-4.1274e-05,-9.45e-06,0.0,0 STARLINK-4146,1 53294U 22086BE  23315.44013287 -.00000945  00000-0 -41274-4 0  9996,2 53294  53.2170  26.3897 0001382  84.5216 275.5933 15.08839477 72968,6917.882,95.438,540.703,538.791,0.0
53294.0,STARLINK-4146,PAYLOAD,2023-11-12 11:59:57,15.08842559,0.000157,53.2169,21.6314,86.5671,273.5501,0.00010368,1.363e-05,0.0,0 STARLINK-4146,1 53294U 22086BE  23316.49997325  .00001363  00000-0  10368-3 0  9998,2 53294  53.2169  21.6314 0001570  86.5671 273.5501 15.08842559 73329,6917.873,95.437,540.824,538.651,0.0
53294.0,STARLINK-4146,PAYLOAD,2023-11-13 13:26:07,15.08854797,0.0001527,53.2174,16.8723,91.989,268.1277,0.00029846,4.467e-05,0.0,0 STARLINK-4146,1 53294U 22086BE  23317.55980508  .00004467  00000-0  29846-3 0  9990,2 53294  53.2174  16.8723 0001527  91.9890 268.1277 15.08854797 73484,6917.835,95.437,540.757,538.644,0.0
53294.0,STARLINK-4146,PAYLOAD,2023-11-13 21:23:03,15.0884125,0.0002041,53.2178,15.3871,89.5523,270.5703,0.00010156,1.329e-05,0.0,0 STARLINK-4146,1 53294U 22086BE  23317.89101369  .00001329  00000-0  10156-3 0  9995,2 53294  53.2178  15.3871 0002041  89.5523 270.5703 15.08841250 73531,6917.877,95.437,541.154,538.33,0.0
53294.0,STARLINK-4146,PAYLOAD,2023-11-14 03:44:35,15.08844072,0.0001916,53.2174,14.1984,88.2452,271.8759,6.7919e-05,7.93e-06,0.0,0 STARLINK-4146,1 53294U 22086BE  23318.15597202  .00000793  00000-0  67919-4 0  9994,2 53294  53.2174  14.1984 0001916  88.2452 271.8759 15.08844072 73378,6917.868,95.437,541.058,538.407,0.0
53294.0,STARLINK-4146,PAYLOAD,2023-11-14 13:16:54,15.08842022,0.0001618,53.2166,12.4123,98.6401,261.4774,4.3017e-05,3.97e-06,0.0,0 STARLINK-4146,1 53294U 22086BE  23318.55341055  .00000397  00000-0  43017-4 0  9994,2 53294  53.2166  12.4123 0001618  98.6401 261.4774 15.08842022 73637,6917.874,95.437,540.859,538.62,0.0
53294.0,STARLINK-4146,PAYLOAD,2023-11-14 21:13:50,15.08835873,0.0001568,53.2156,10.9248,98.6314,261.4856,-3.462e-05,-8.39e-06,0.0,0 STARLINK-4146,1 53294U 22086BE  23318.88461346 -.00000839  00000-0 -34620-4 0  9999,2 53294  53.2156  10.9248 0001568  98.6314 261.4856 15.08835873 73686,6917.893,95.438,540.843,538.673,0.0
53294.0,STARLINK-4146,PAYLOAD,2023-11-15 03:35:23,15.08841261,0.0001456,53.2162,9.7346,96.4819,263.6339,-5.1631e-05,-1.11e-05,0.0,0 STARLINK-4146,1 53294U 22086BE  23319.14957263 -.00001110  00000-0 -51631-4 0  9991,2 53294  53.2162   9.7346 0001456  96.4819 263.6339 15.08841261 73521,6917.877,95.437,540.749,538.734,0.0
53294.0,STARLINK-4146,PAYLOAD,2023-11-15 09:56:55,15.08845792,0.0001492,53.2162,8.5456,96.7124,263.4038,3.9379e-05,3.39e-06,0.0,0 STARLINK-4146,1 53294U 22086BE  23319.41453021  .00000339  00000-0  39379-4 0  9999,2 53294  53.2162   8.5456 0001492  96.7124 263.4038 15.08845792 73765,6917.863,95.437,540.76,538.696,0.0
53294.0,STARLINK-4146,PAYLOAD,2023-11-16 08:12:20,15.08835086,0.000158,53.2162,4.383,94.3507,265.7666,0.00014905,2.085e-05,0.0,0 STARLINK-4146,1 53294U 22086BE  23320.34189877  .00002085  00000-0  14905-3 0  9995,2 53294  53.2162   4.3830 0001580  94.3507 265.7666 15.08835086 73703,6917.895,95.438,540.853,538.667,0.0
53294.0,STARLINK-4146,PAYLOAD,2023-11-16 12:58:29,15.08839541,0.0001564,53.2167,3.4914,93.7715,266.3456,0.0001344,1.852e-05,0.0,0 STARLINK-4146,1 53294U 22086BE  23320.54061680  .00001852  00000-0  13440-3 0  9992,2 53294  53.2167   3.4914 0001564  93.7715 266.3456 15.08839541 73936,6917.882,95.438,540.829,538.665,0.0
53294.0,STARLINK-4146,PAYLOAD,2023-11-17 09:38:29,15.08842806,0.0001514,53.2175,359.6241,96.8611,263.2554,0.0001021,1.337e-05,0.0,0 STARLINK-4146,1 53294U 22086BE  23321.40173511  .00001337  00000-0  10210-3 0  9995,2 53294  53.2175 359.6241 0001514  96.8611 263.2554 15.08842806 73863,6917.872,95.437,540.784,538.689,0.0
53294.0,STARLINK-4146,PAYLOAD,2023-11-17 19:10:48,15.08839463,0.0001374,53.2174,357.8399,90.9005,269.2144,9.2381e-05,1.183e-05,0.0,0 STARLINK-4146,1 53294U 22086BE  23321.79917754  .00001183  00000-0  92381-4 0  9991,2 53294  53.2174 357.8399 0001374  90.9005 269.2144 15.08839463 74128,6917.882,95.438,540.698,538.797,0.0
53294.0,STARLINK-4146,PAYLOAD,2023-11-18 03:07:45,15.08830691,0.000164,53.2193,356.3556,107.073,253.0442,2.5807e-05,1.23e-06,0.0,0 STARLINK-4146,1 53294U 22086BE  23322.13038589  .00000123  00000-0  25807-4 0  9992,2 53294  53.2193 356.3556 0001640 107.0730 253.0442 15.08830691 73977,6917.909,95.438,540.908,538.639,0.0
53294.0,STARLINK-4146,PAYLOAD,2023-11-18 09:29:18,15.08830264,0.0001575,53.2191,355.1666,106.5782,253.5384,-2.7262e-06,-3.31e-06,0.0,0 STARLINK-4146,1 53294U 22086BE  23322.39534821 -.00000331  00000-0 -27262-5 0  9991,2 53294  53.2191 355.1666 0001575 106.5782 253.5384 15.08830264 74216,6917.91,95.438,540.865,538.686,0.0
53294.0,STARLINK-4146,PAYLOAD,2023-11-18 19:01:36,15.08836024,0.000152,53.2193,353.3826,101.8996,258.2166,-3.5596e-06,-3.45e-06,0.0,0 STARLINK-4146,1 53294U 22086BE  23322.79278622 -.00000345  00000-0 -35596-5 0  9993,2 53294  53.2193 353.3826 0001520 101.8996 258.2166 15.08836024 74277,6917.893,95.438,540.809,538.706,0.0
53294.0,STARLINK-4146,PAYLOAD,2023-11-19 02:58:31,15.08841617,0.0001425,53.2187,351.8952,93.7728,266.3427,7.9258e-05,9.74e-06,0.0,0 STARLINK-4146,1 53294U 22086BE  23323.12398120  .00000974  00000-0  79258-4 0  9995,2 53294  53.2187 351.8952 0001425  93.7728 266.3427 15.08841617 74127,6917.875,95.437,540.726,538.755,0.0
53294.0,STARLINK-4146,PAYLOAD,2023-11-19 09:20:04,15.08846167,0.0001427,53.2184,350.706,94.6923,265.4232,0.00011808,1.592e-05,0.0,0 STARLINK-4146,1 53294U 22086BE  23323.38893778  .00001592  00000-0  11808-3 0  9995,2 53294  53.2184 350.7060 0001427  94.6923 265.4232 15.08846167 74366,6917.862,95.437,540.714,538.739,0.0
53294.0,STARLINK-4146,PAYLOAD,2023-11-20 09:10:51,15.08845847,0.0001394,53.2177,346.2452,88.8354,271.2798,0.00023891,3.517e-05,0.0,0 STARLINK-4146,1 53294U 22086BE  23324.38253648  .00003517  00000-0  23891-3 0  9996,2 53294  53.2177 346.2452 0001394  88.8354 271.2798 15.08845847 74310,6917.863,95.437,540.692,538.763,0.0
53294.0,STARLINK-4146,PAYLOAD,2023-11-20 10:46:14,15.08847637,0.000139,53.2176,345.9478,88.4892,271.6259,0.00025864,3.832e-05,0.0,0 STARLINK-4146,1 53294U 22086BE  23324.44877587  .00003832  00000-0  25864-3 0  9999,2 53294  53.2176 345.9478 0001390  88.4892 271.6259 15.08847637 74520,6917.857,95.437,540.684,538.76,0.0
53294.0,STARLINK-4146,PAYLOAD,2023-11-20 18:43:10,15.08842689,0.0001529,53.2185,344.4595,79.6456,280.4709,0.00011972,1.618e-05,0.0,0 STARLINK-4146,1 53294U 22086BE  23324.77998167  .00001618  00000-0  11972-3 0  9998,2 53294  53.2185 344.4595 0001529  79.6456 280.4709 15.08842689 74379,6917.872,95.437,540.795,538.679,0.0
53294.0,STARLINK-4146,PAYLOAD,2023-11-21 10:37:01,15.08849853,0.0001565,53.2177,341.4856,89.9918,270.1254,6.7082e-05,7.8e-06,0.0,0 STARLINK-4146,1 53294U 22086BE  23325.44237594  .00000780  00000-0  67082-4 0  9996,2 53294  53.2177 341.4856 0001565  89.9918 270.1254 15.08849853 74678,6917.85,95.437,540.798,538.633,0.0
53294.0,STARLINK-4146,PAYLOAD,2023-11-22 00:55:29,15.08847335,0.0001554,53.2171,338.8096,89.849,270.268,3.8293e-05,3.22e-06,0.0,0 STARLINK-4146,1 53294U 22086BE  23326.03853769  .00000322  00000-0  38293-4 0  9994,2 53294  53.2171 338.8096 0001554  89.8490 270.2680 15.08847335 74565,6917.858,95.437,540.798,538.648,0.0
53294.0,STARLINK-4146,PAYLOAD,2023-11-22 07:17:01,15.08848435,0.0001637,53.2159,337.6222,87.1035,273.0144,0.00010424,1.372e-05,0.0,0 STARLINK-4146,1 53294U 22086BE  23326.30349506  .00001372  00000-0  10424-3 0  9994,2 53294  53.2159 337.6222 0001637  87.1035 273.0144 15.08848435 74802,6917.855,95.437,540.852,538.587,0.0
53294.0,STARLINK-4146,PAYLOAD,2023-11-23 03:57:02,15.08843905,0.0001658,53.2159,333.7567,86.987,273.1312,0.00014436,2.01e-05,0.0,0 STARLINK-4146,1 53294U 22086BE  23327.16461646  .00002010  00000-0  14436-3 0  9996,2 53294  53.2159 333.7567 0001658  86.9870 273.1312 15.08843905 74735,6917.868,95.437,540.88,538.586,0.0
53294.0,STARLINK-4146,PAYLOAD,2023-11-23 07:07:48,15.08846862,0.0001637,53.2158,333.1622,80.3637,279.754,7.2307e-05,8.63e-06,0.0,0 STARLINK-4146,1 53294U 22086BE  23327.29709468  .00000863  00000-0  72307-4 0  9993,2 53294  53.2158 333.1622 0001637  80.3637 279.7540 15.08846862 74950,6917.859,95.437,540.857,538.592,0.0
53294.0,STARLINK-4146,PAYLOAD,2023-11-24 03:47:50,15.08827023,0.0001759,53.2175,329.2956,106.3337,253.7848,-0.00011794,-2.164e-05,0.0,0 STARLINK-4146,1 53294U 22086BE  23328.15822679 -.00002164  00000-0 -11794-3 0  9999,2 53294  53.2175 329.2956 0001759 106.3337 253.7848 15.08827023 74889,6917.92,95.438,541.002,538.568,0.0
53294.0,STARLINK-4146,PAYLOAD,2023-11-24 06:58:37,15.08829653,0.0001937,53.2182,328.7007,111.5798,248.5401,-6.3301e-05,-1.295e-05,0.0,0 STARLINK-4146,1 53294U 22086BE  23328.29071012 -.00001295  00000-0 -63301-4 0  9997,2 53294  53.2182 328.7007 0001937 111.5798 248.5401 15.08829653 75109,6917.912,95.438,541.117,538.437,0.0
53294.0,STARLINK-4146,PAYLOAD,2023-11-25 03:38:36,15.08842599,0.000128,53.218,324.834,79.0928,281.0208,5.1244e-05,5.28e-06,0.0,0 STARLINK-4146,1 53294U 22086BE  23329.15181295  .00000528  00000-0  51244-4 0  9997,2 53294  53.2180 324.8340 0001280  79.0928 281.0208 15.08842599 75031,6917.872,95.437,540.623,538.852,0.0
53294.0,STARLINK-4146,PAYLOAD,2023-11-25 06:49:23,15.08831052,0.0001913,53.2187,324.2424,116.2346,243.8843,-5.782e-06,-3.8e-06,0.0,0 STARLINK-4146,1 53294U 22086BE  23329.28430365 -.00000380  00000-0 -57820-5 0  9991,2 53294  53.2187 324.2424 0001913 116.2346 243.8843 15.08831052 75253,6917.908,95.438,541.096,538.449,0.0
